{
  "type": "FeatureCollection",
  "features": [
    {
      "type": "Feature",
      "properties": {
        "norad_id": 41890,
        "name": "CYGFM07",
        "group": "weather",
        "lat": 26.9507469228322,
        "lon": 90.59243353321257,
        "alt_km": 416.56339783085514,
        "timestamp": "2025-12-09T07:41:32.844927+00:00",
        "meta_object_name": "CYGFM07",
        "meta_object_id": "2016-078G",
        "meta_epoch": "2025-12-08T14:27:41.221152",
        "meta_mean_motion": 15.49748278,
        "meta_eccentricity": 0.0009451,
        "meta_inclination": 34.948,
        "meta_ra_of_asc_node": 48.5742,
        "meta_arg_of_pericenter": 178.7665,
        "meta_mean_anomaly": 181.3082,
        "meta_ephemeris_type": 0,
        "meta_classification_type": "U",
        "meta_norad_cat_id": 41890,
        "meta_element_set_no": 999,
        "meta_rev_at_epoch": 49931,
        "meta_bstar": 0.00049171,
        "meta_mean_motion_dot": 0.00028275,
        "meta_mean_motion_ddot": 0,
        "tle_line1": "1 41890U 16078G   25342.60256043  .00028275  00000+0  49171-3 0  9994",
        "tle_line2": "2 41890  34.9480  48.5742 0009451 178.7665 181.3082 15.49748278499315"
      },
      "geometry": {
        "type": "Point",
        "coordinates": [
          90.59243353321257,
          26.9507469228322
        ]
      }
    },
    {
      "type": "Feature",
      "properties": {
        "norad_id": 41891,
        "name": "CYGFM03",
        "group": "weather",
        "lat": -32.19166250206297,
        "lon": -69.84699277824866,
        "alt_km": 418.0927067341745,
        "timestamp": "2025-12-09T07:41:32.844937+00:00",
        "meta_object_name": "CYGFM03",
        "meta_object_id": "2016-078H",
        "meta_epoch": "2025-12-08T15:09:54.108000",
        "meta_mean_motion": 15.49651894,
        "meta_eccentricity": 0.00087312,
        "meta_inclination": 34.9436,
        "meta_ra_of_asc_node": 50.2977,
        "meta_arg_of_pericenter": 166.471,
        "meta_mean_anomaly": 193.6247,
        "meta_ephemeris_type": 0,
        "meta_classification_type": "U",
        "meta_norad_cat_id": 41891,
        "meta_element_set_no": 999,
        "meta_rev_at_epoch": 49929,
        "meta_bstar": 0.00050514464,
        "meta_mean_motion_dot": 0.00028945,
        "meta_mean_motion_ddot": 0,
        "tle_line1": "1 41891U 16078H   25342.63187625  .00028945  00000+0  50514-3 0  9994",
        "tle_line2": "2 41891  34.9436  50.2977 0008731 166.4710 193.6247 15.49651894499295"
      },
      "geometry": {
        "type": "Point",
        "coordinates": [
          -69.84699277824866,
          -32.19166250206297
        ]
      }
    },
    {
      "type": "Feature",
      "properties": {
        "norad_id": 43010,
        "name": "FENGYUN 3D",
        "group": "weather",
        "lat": -2.2692078343792894,
        "lon": 129.2195989233487,
        "alt_km": 829.0972335946399,
        "timestamp": "2025-12-09T07:41:32.844947+00:00",
        "meta_object_name": "FENGYUN 3D",
        "meta_object_id": "2017-072A",
        "meta_epoch": "2025-12-08T22:22:46.887168",
        "meta_mean_motion": 14.19681226,
        "meta_eccentricity": 7.525e-05,
        "meta_inclination": 98.989,
        "meta_ra_of_asc_node": 309.1852,
        "meta_arg_of_pericenter": 195.0305,
        "meta_mean_anomaly": 165.0848,
        "meta_ephemeris_type": 0,
        "meta_classification_type": "U",
        "meta_norad_cat_id": 43010,
        "meta_element_set_no": 999,
        "meta_rev_at_epoch": 41799,
        "meta_bstar": -5.799395e-05,
        "meta_mean_motion_dot": -1.69e-06,
        "meta_mean_motion_ddot": 0,
        "tle_line1": "1 43010U 17072A   25342.93248712 -.00000169  00000+0 -57994-4 0  9992",
        "tle_line2": "2 43010  98.9890 309.1852 0000752 195.0305 165.0848 14.19681226417990"
      },
      "geometry": {
        "type": "Point",
        "coordinates": [
          129.2195989233487,
          -2.2692078343792894
        ]
      }
    },
    {
      "type": "Feature",
      "properties": {
        "norad_id": 43013,
        "name": "NOAA 20 (JPSS-1)",
        "group": "weather",
        "lat": -23.31020188949828,
        "lon": -76.53612772328721,
        "alt_km": 833.0140618132091,
        "timestamp": "2025-12-09T07:41:32.844959+00:00",
        "meta_object_name": "NOAA 20 (JPSS-1)",
        "meta_object_id": "2017-073A",
        "meta_epoch": "2025-12-08T21:39:12.414528",
        "meta_mean_motion": 14.19523972,
        "meta_eccentricity": 0.00021341,
        "meta_inclination": 98.7594,
        "meta_ra_of_asc_node": 279.2411,
        "meta_arg_of_pericenter": 92.9738,
        "meta_mean_anomaly": 267.1683,
        "meta_ephemeris_type": 0,
        "meta_classification_type": "U",
        "meta_norad_cat_id": 43013,
        "meta_element_set_no": 999,
        "meta_rev_at_epoch": 41747,
        "meta_bstar": 9.262618e-05,
        "meta_mean_motion_dot": 1.51e-06,
        "meta_mean_motion_ddot": 0,
        "tle_line1": "1 43013U 17073A   25342.90222702  .00000151  00000+0  92626-4 0  9994",
        "tle_line2": "2 43013  98.7594 279.2411 0002134  92.9738 267.1683 14.19523972417478"
      },
      "geometry": {
        "type": "Point",
        "coordinates": [
          -76.53612772328721,
          -23.31020188949828
        ]
      }
    },
    {
      "type": "Feature",
      "properties": {
        "norad_id": 43226,
        "name": "GOES 17",
        "group": "weather",
        "lat": 0.13521180029674926,
        "lon": 104.193514091391,
        "alt_km": 35800.36007784945,
        "timestamp": "2025-12-09T07:41:32.844971+00:00",
        "meta_object_name": "GOES 17",
        "meta_object_id": "2018-022A",
        "meta_epoch": "2025-12-08T21:44:17.246688",
        "meta_mean_motion": 1.00271697,
        "meta_eccentricity": 0.0003414,
        "meta_inclination": 0.45,
        "meta_ra_of_asc_node": 89.1741,
        "meta_arg_of_pericenter": 185.5157,
        "meta_mean_anomaly": 39.7902,
        "meta_ephemeris_type": 0,
        "meta_classification_type": "U",
        "meta_norad_cat_id": 43226,
        "meta_element_set_no": 999,
        "meta_rev_at_epoch": 2851,
        "meta_bstar": 0,
        "meta_mean_motion_dot": -1.8e-06,
        "meta_mean_motion_ddot": 0,
        "tle_line1": "1 43226U 18022A   25342.90575517 -.00000180  00000+0  00000+0 0  9993",
        "tle_line2": "2 43226   0.4500  89.1741 0003414 185.5157  39.7902  1.00271697 28511"
      },
      "geometry": {
        "type": "Point",
        "coordinates": [
          104.193514091391,
          0.13521180029674926
        ]
      }
    },
    {
      "type": "Feature",
      "properties": {
        "norad_id": 43491,
        "name": "FENGYUN 2H",
        "group": "weather",
        "lat": -0.5366526590480246,
        "lon": -86.9345278023061,
        "alt_km": 35775.188290466474,
        "timestamp": "2025-12-09T07:41:32.844984+00:00",
        "meta_object_name": "FENGYUN 2H",
        "meta_object_id": "2018-050A",
        "meta_epoch": "2025-12-08T22:32:27.631680",
        "meta_mean_motion": 1.00271071,
        "meta_eccentricity": 0.00029609,
        "meta_inclination": 2.5404,
        "meta_ra_of_asc_node": 81.358,
        "meta_arg_of_pericenter": 164.729,
        "meta_mean_anomaly": 249.3275,
        "meta_ephemeris_type": 0,
        "meta_classification_type": "U",
        "meta_norad_cat_id": 43491,
        "meta_element_set_no": 999,
        "meta_rev_at_epoch": 2753,
        "meta_bstar": 0,
        "meta_mean_motion_dot": -1.28e-06,
        "meta_mean_motion_ddot": 0,
        "tle_line1": "1 43491U 18050A   25342.93920870 -.00000128  00000+0  00000+0 0  9999",
        "tle_line2": "2 43491   2.5404  81.3580 0002960 164.7290 249.3275  1.00271071 27537"
      },
      "geometry": {
        "type": "Point",
        "coordinates": [
          -86.9345278023061,
          -0.5366526590480246
        ]
      }
    },
    {
      "type": "Feature",
      "properties": {
        "norad_id": 43689,
        "name": "METOP-C",
        "group": "weather",
        "lat": 80.67151407871252,
        "lon": -70.20059227425826,
        "alt_km": 812.0615534602211,
        "timestamp": "2025-12-09T07:41:32.844995+00:00",
        "meta_object_name": "METOP-C",
        "meta_object_id": "2018-087A",
        "meta_epoch": "2025-12-08T22:48:30.466368",
        "meta_mean_motion": 14.21509484,
        "meta_eccentricity": 0.00014935,
        "meta_inclination": 98.6934,
        "meta_ra_of_asc_node": 40.7779,
        "meta_arg_of_pericenter": 48.7274,
        "meta_mean_anomaly": 311.4032,
        "meta_ephemeris_type": 0,
        "meta_classification_type": "U",
        "meta_norad_cat_id": 43689,
        "meta_element_set_no": 999,
        "meta_rev_at_epoch": 36780,
        "meta_bstar": 0.00011956238,
        "meta_mean_motion_dot": 2.18e-06,
        "meta_mean_motion_ddot": 0,
        "tle_line1": "1 43689U 18087A   25342.95035262  .00000218  00000+0  11956-3 0  9997",
        "tle_line2": "2 43689  98.6934  40.7779 0001493  48.7274 311.4032 14.21509484367800"
      },
      "geometry": {
        "type": "Point",
        "coordinates": [
          -70.20059227425826,
          80.67151407871252
        ]
      }
    }
  ]
}